{
  "type": "FeatureCollection",
  "features": [
    {
      "type": "Feature",
      "properties": {
        "norad_id": 38867,
        "name": "INTELSAT 23 (IS-23)",
        "group": "intelsat",
        "lat": 0.03395403705491504,
        "lon": 175.75054504939303,
        "alt_km": 35781.50842467685,
        "timestamp": "2025-12-10T09:57:44.372139+00:00",
        "meta_object_name": "INTELSAT 23 (IS-23)",
        "meta_object_id": "2012-057A",
        "meta_epoch": "2025-12-09T20:10:10.490880",
        "meta_mean_motion": 1.00260311,
        "meta_eccentricity": 0.0002006,
        "meta_inclination": 0.0432,
        "meta_ra_of_asc_node": 94.7791,
        "meta_arg_of_pericenter": 102.2636,
        "meta_mean_anomaly": 131.2856,
        "meta_ephemeris_type": 0,
        "meta_classification_type": "U",
        "meta_norad_cat_id": 38867,
        "meta_element_set_no": 999,
        "meta_rev_at_epoch": 4805,
        "meta_bstar": 0,
        "meta_mean_motion_dot": -2.82e-06,
        "meta_mean_motion_ddot": 0,
        "tle_line1": "1 38867U 12057A   25343.84039920 -.00000282  00000+0  00000+0 0  9990",
        "tle_line2": "2 38867   0.0432  94.7791 0002006 102.2636 131.2856  1.00260311 48055"
      },
      "geometry": {
        "type": "Point",
        "coordinates": [
          175.75054504939303,
          0.03395403705491504
        ]
      }
    },
    {
      "type": "Feature",
      "properties": {
        "norad_id": 39360,
        "name": "FM-6",
        "group": "intelsat",
        "lat": 0.004119319079783762,
        "lon": 112.63971760395215,
        "alt_km": 35780.85647658046,
        "timestamp": "2025-12-10T09:57:44.372151+00:00",
        "meta_object_name": "FM-6",
        "meta_object_id": "2013-058A",
        "meta_epoch": "2025-12-10T04:39:38.509344",
        "meta_mean_motion": 1.00269351,
        "meta_eccentricity": 0.0002876,
        "meta_inclination": 0.009,
        "meta_ra_of_asc_node": 85.4375,
        "meta_arg_of_pericenter": 87.9229,
        "meta_mean_anomaly": 219.5709,
        "meta_ephemeris_type": 0,
        "meta_classification_type": "U",
        "meta_norad_cat_id": 39360,
        "meta_element_set_no": 999,
        "meta_rev_at_epoch": 4417,
        "meta_bstar": 0,
        "meta_mean_motion_dot": -1.3e-07,
        "meta_mean_motion_ddot": 0,
        "tle_line1": "1 39360U 13058A   25344.19419571 -.00000013  00000+0  00000+0 0  9996",
        "tle_line2": "2 39360   0.0090  85.4375 0002876  87.9229 219.5709  1.00269351 44170"
      },
      "geometry": {
        "type": "Point",
        "coordinates": [
          112.63971760395215,
          0.004119319079783762
        ]
      }
    },
    {
      "type": "Feature",
      "properties": {
        "norad_id": 40271,
        "name": "INTELSAT 30 (IS-30)",
        "group": "intelsat",
        "lat": 0.02434724289148246,
        "lon": 133.7677996576832,
        "alt_km": 35783.39526875318,
        "timestamp": "2025-12-10T09:57:44.372163+00:00",
        "meta_object_name": "INTELSAT 30 (IS-30)",
        "meta_object_id": "2014-062A",
        "meta_epoch": "2025-12-10T01:11:38.647968",
        "meta_mean_motion": 1.00269267,
        "meta_eccentricity": 0.0001311,
        "meta_inclination": 0.0157,
        "meta_ra_of_asc_node": 21.0097,
        "meta_arg_of_pericenter": 60.6078,
        "meta_mean_anomaly": 280.2609,
        "meta_ephemeris_type": 0,
        "meta_classification_type": "U",
        "meta_norad_cat_id": 40271,
        "meta_element_set_no": 999,
        "meta_rev_at_epoch": 488,
        "meta_bstar": 0,
        "meta_mean_motion_dot": -1.47e-06,
        "meta_mean_motion_ddot": 0,
        "tle_line1": "1 40271U 14062A   25344.04975287 -.00000147  00000+0  00000+0 0  9998",
        "tle_line2": "2 40271   0.0157  21.0097 0001311  60.6078 280.2609  1.00269267  4881"
      },
      "geometry": {
        "type": "Point",
        "coordinates": [
          133.7677996576832,
          0.02434724289148246
        ]
      }
    },
    {
      "type": "Feature",
      "properties": {
        "norad_id": 40333,
        "name": "DIRECTV 14",
        "group": "intelsat",
        "lat": 0.014888872343954305,
        "lon": 129.60118424878232,
        "alt_km": 35785.51853114806,
        "timestamp": "2025-12-10T09:57:44.372174+00:00",
        "meta_object_name": "DIRECTV 14",
        "meta_object_id": "2014-078B",
        "meta_epoch": "2025-12-10T04:23:38.620032",
        "meta_mean_motion": 1.00270853,
        "meta_eccentricity": 4.43e-05,
        "meta_inclination": 0.0174,
        "meta_ra_of_asc_node": 330.1413,
        "meta_arg_of_pericenter": 222.7912,
        "meta_mean_anomaly": 212.9246,
        "meta_ephemeris_type": 0,
        "meta_classification_type": "U",
        "meta_norad_cat_id": 40333,
        "meta_element_set_no": 999,
        "meta_rev_at_epoch": 4014,
        "meta_bstar": 0,
        "meta_mean_motion_dot": -1.22e-06,
        "meta_mean_motion_ddot": 0,
        "tle_line1": "1 40333U 14078B   25344.18308588 -.00000122  00000+0  00000+0 0  9996",
        "tle_line2": "2 40333   0.0174 330.1413 0000443 222.7912 212.9246  1.00270853 40149"
      },
      "geometry": {
        "type": "Point",
        "coordinates": [
          129.60118424878232,
          0.014888872343954305
        ]
      }
    },
    {
      "type": "Feature",
      "properties": {
        "norad_id": 40663,
        "name": "DIRECTV 15",
        "group": "intelsat",
        "lat": 0.035554373780319816,
        "lon": 125.94747001960513,
        "alt_km": 35788.09016234357,
        "timestamp": "2025-12-10T09:57:44.372186+00:00",
        "meta_object_name": "DIRECTV 15",
        "meta_object_id": "2015-026A",
        "meta_epoch": "2025-12-10T04:31:38.802720",
        "meta_mean_motion": 1.00269219,
        "meta_eccentricity": 3.06e-05,
        "meta_inclination": 0.0409,
        "meta_ra_of_asc_node": 83.3518,
        "meta_arg_of_pericenter": 219.604,
        "meta_mean_anomaly": 101.2507,
        "meta_ephemeris_type": 0,
        "meta_classification_type": "U",
        "meta_norad_cat_id": 40663,
        "meta_element_set_no": 999,
        "meta_rev_at_epoch": 3856,
        "meta_bstar": 0,
        "meta_mean_motion_dot": -9.9e-07,
        "meta_mean_motion_ddot": 0,
        "tle_line1": "1 40663U 15026A   25344.18864355 -.00000099  00000+0  00000+0 0  9998",
        "tle_line2": "2 40663   0.0409  83.3518 0000306 219.6040 101.2507  1.00269219 38561"
      },
      "geometry": {
        "type": "Point",
        "coordinates": [
          125.94747001960513,
          0.035554373780319816
        ]
      }
    },
    {
      "type": "Feature",
      "properties": {
        "norad_id": 40664,
        "name": "SKY MEXICO-1",
        "group": "intelsat",
        "lat": 0.028079259781406175,
        "lon": 150.02822930693978,
        "alt_km": 35793.07970356944,
        "timestamp": "2025-12-10T09:57:44.372197+00:00",
        "meta_object_name": "SKY MEXICO-1",
        "meta_object_id": "2015-026B",
        "meta_epoch": "2025-12-10T04:15:38.659392",
        "meta_mean_motion": 1.00270655,
        "meta_eccentricity": 0.0002726,
        "meta_inclination": 0.029,
        "meta_ra_of_asc_node": 67.5493,
        "meta_arg_of_pericenter": 207.8932,
        "meta_mean_anomaly": 148.8575,
        "meta_ephemeris_type": 0,
        "meta_classification_type": "U",
        "meta_norad_cat_id": 40664,
        "meta_element_set_no": 999,
        "meta_rev_at_epoch": 3855,
        "meta_bstar": 0,
        "meta_mean_motion_dot": -2.31e-06,
        "meta_mean_motion_ddot": 0,
        "tle_line1": "1 40664U 15026B   25344.17753078 -.00000231  00000+0  00000+0 0  9995",
        "tle_line2": "2 40664   0.0290  67.5493 0002726 207.8932 148.8575  1.00270655 38550"
      },
      "geometry": {
        "type": "Point",
        "coordinates": [
          150.02822930693978,
          0.028079259781406175
        ]
      }
    },
    {
      "type": "Feature",
      "properties": {
        "norad_id": 40874,
        "name": "INTELSAT 34 (IS-34)",
        "group": "intelsat",
        "lat": -0.013947142824557493,
        "lon": 173.32510044895812,
        "alt_km": 35784.30251344691,
        "timestamp": "2025-12-10T09:57:44.372209+00:00",
        "meta_object_name": "INTELSAT 34 (IS-34)",
        "meta_object_id": "2015-039A",
        "meta_epoch": "2025-12-10T03:59:38.770080",
        "meta_mean_motion": 1.00269978,
        "meta_eccentricity": 5.55e-05,
        "meta_inclination": 0.0112,
        "meta_ra_of_asc_node": 310.175,
        "meta_arg_of_pericenter": 217.3462,
        "meta_mean_anomaly": 276.0397,
        "meta_ephemeris_type": 0,
        "meta_classification_type": "U",
        "meta_norad_cat_id": 40874,
        "meta_element_set_no": 999,
        "meta_rev_at_epoch": 3773,
        "meta_bstar": 0,
        "meta_mean_motion_dot": -2.82e-06,
        "meta_mean_motion_ddot": 0,
        "tle_line1": "1 40874U 15039A   25344.16642095 -.00000282  00000+0  00000+0 0  9993",
        "tle_line2": "2 40874   0.0112 310.1750 0000555 217.3462 276.0397  1.00269978 37732"
      },
      "geometry": {
        "type": "Point",
        "coordinates": [
          173.32510044895812,
          -0.013947142824557493
        ]
      }
    }
  ]
}